FENGYUN 1C DEB          
1 38163U 99025ERL 17345.14705492  .00000335  00000-0  24853-3 0  9994
2 38163  99.2272 312.3308 0083788  13.0666 347.2642 14.00552612457549
